      2.10          N: GNSS NAV DATA                        RINEX VERSION / TYPE
fic2rin                                 02/10/2021 00:17:20 PGM / RUN BY / DATE
                                                            END OF HEADER
22 21  2  9  1 59 44.0-6.829039193690e-04 7.275957614183e-12 0.000000000000e+00
    1.800000000000e+01-1.294062500000e+02 4.845916137572e-09 2.595783960067e+00
   -6.692484021187e-06 6.949102273211e-03 8.644536137581e-06 5.153616149902e+03
    1.799840000000e+05 1.043081283569e-07-6.151271473605e-01 6.891787052155e-08
    9.338713591934e-01 1.968437500000e+02-1.042114101538e+00-8.043192174096e-09
   -1.150047904111e-10 1.000000000000e+00 2.144000000000e+03 0.000000000000e+00
    2.400000000000e+00 0.000000000000e+00-1.816079020500e-08 1.800000000000e+01
    1.737600000000e+05 4.000000000000e+00
13 21  2  9  1 59 44.0 9.509455412626e-05 4.320099833421e-12 0.000000000000e+00
    4.700000000000e+01 1.996875000000e+01 4.438042005121e-09 2.959858442625e+00
    1.057982444763e-06 4.921255633235e-03 7.530674338341e-06 5.153673843384e+03
    1.799840000000e+05 3.166496753693e-08 6.571028708578e-01 1.862645149231e-09
    9.681275887543e-01 2.384062500000e+02 1.030990366510e+00-7.791395971488e-09
    5.275219734076e-10 1.000000000000e+00 2.144000000000e+03 0.000000000000e+00
    2.400000000000e+00 0.000000000000e+00-1.117587089539e-08 4.700000000000e+01
    1.747800000000e+05 4.000000000000e+00
32 21  2  9  1 59 44.0 1.804810017347e-05 1.477928890381e-12 0.000000000000e+00
    4.000000000000e+01 5.781250000000e+00 4.557332688342e-09-1.929527328444e+00
    3.352761268616e-07 4.549721372314e-03 8.568167686462e-06 5.153629516602e+03
    1.799840000000e+05 1.862645149231e-08 5.197517526039e-01-1.229345798492e-07
    9.573668022387e-01 2.142812500000e+02-2.443182026167e+00-7.784252816804e-09
    5.914532078287e-10 1.000000000000e+00 2.144000000000e+03 0.000000000000e+00
    2.400000000000e+00 0.000000000000e+00 4.656612873077e-10 4.000000000000e+01
    1.751700000000e+05 4.000000000000e+00
 9 21  2  9  1 59 44.0-3.211083821952e-04-3.637978807092e-12 0.000000000000e+00
    5.000000000000e+00 1.312500000000e+01 4.708053252173e-09-2.234399839448e+00
    6.668269634247e-07 1.968765747733e-03 8.765608072281e-06 5.153568441391e+03
    1.799840000000e+05 3.725290298462e-09 5.101885561784e-01 1.862645149231e-08
    9.533540852415e-01 2.073750000000e+02 1.812903797600e+00-7.986404094359e-09
    5.303792352812e-10 1.000000000000e+00 2.144000000000e+03 0.000000000000e+00
    2.400000000000e+00 0.000000000000e+00 1.396983861923e-09 5.000000000000e+00
    1.752600000000e+05 4.000000000000e+00
17 21  2  9  1 59 44.0 3.909450024366e-04 6.480149750132e-12 0.000000000000e+00
    2.500000000000e+01 1.169062500000e+02 4.073741116241e-09-2.757665982097e+00
    6.156042218208e-06 1.352361997124e-02 4.148110747337e-06 5.153551273346e+03
    1.799840000000e+05 2.179294824600e-07-2.555340517447e+00 1.583248376846e-07
    9.829944176631e-01 3.094375000000e+02-1.578753068008e+00-7.810682489134e-09
    3.157274370293e-10 1.000000000000e+00 2.144000000000e+03 0.000000000000e+00
    2.400000000000e+00 0.000000000000e+00-1.117587089539e-08 2.500000000000e+01
    1.789500000000e+05 4.000000000000e+00
21 21  2  9  1 59 44.0 9.399093687534e-05 3.296918293927e-12 0.000000000000e+00
    1.200000000000e+01-5.015625000000e+01 4.727696927554e-09-2.462264724581e+00
   -2.132728695869e-06 2.426205144729e-02-4.731118679047e-07 5.153726499557e+03
    1.799840000000e+05 1.881271600723e-07-1.639188785672e+00 3.278255462646e-07
    9.557778991173e-01 3.814687500000e+02-1.196164176582e+00-8.119623929214e-09
   -6.035965707914e-11 1.000000000000e+00 2.144000000000e+03 0.000000000000e+00
    2.400000000000e+00 0.000000000000e+00-1.024454832077e-08 1.200000000000e+01
    1.798800000000e+05 4.000000000000e+00
 9 21  2  9  3 59 44.0-3.211344592273e-04-3.637978807092e-12 0.000000000000e+00
    6.500000000000e+01 1.015625000000e+01 4.731982820364e-09-1.184514987712e+00
    5.029141902924e-07 1.968730939552e-03 8.974224328995e-06 5.153567115784e+03
    1.871840000000e+05 7.450580596924e-09 5.101310620349e-01 1.862645149231e-08
    9.533579136981e-01 2.029062500000e+02 1.813265888843e+00-7.984618305688e-09
    5.307363930154e-10 1.000000000000e+00 2.144000000000e+03 0.000000000000e+00
    2.400000000000e+00 0.000000000000e+00 1.396983861923e-09 6.500000000000e+01
    1.800000000000e+05 4.000000000000e+00
22 21  2  9  3 59 44.0-6.828508339822e-04 7.389644451905e-12 0.000000000000e+00
    1.900000000000e+01-1.403437500000e+02 4.744840498795e-09-2.637220658232e+00
   -7.189810276031e-06 6.947078742087e-03 9.115785360336e-06 5.153619920731e+03
    1.871840000000e+05 9.313225746155e-09-6.151852983541e-01 1.136213541031e-07
    9.338709334843e-01 1.863750000000e+02-1.042077933814e+00-8.008190716145e-09
   -4.535903224290e-11 1.000000000000e+00 2.144000000000e+03 0.000000000000e+00
    2.400000000000e+00 0.000000000000e+00-1.816079020500e-08 1.900000000000e+01
    1.800000000000e+05 4.000000000000e+00
21 21  2  9  3 59 44.0 9.401421993971e-05 3.296918293927e-12 0.000000000000e+00
    1.300000000000e+01-5.143750000000e+01 5.068068248242e-09-1.412244832340e+00
   -2.207234501839e-06 2.426315669436e-02 1.404434442520e-06 5.153720153809e+03
    1.871840000000e+05-5.289912223816e-07-1.639249489458e+00 3.427267074585e-07
    9.557743676331e-01 3.566875000000e+02-1.196031124183e+00-8.789651838566e-09
   -5.643092200298e-11 1.000000000000e+00 2.144000000000e+03 0.000000000000e+00
    2.400000000000e+00 0.000000000000e+00-1.024454832077e-08 1.300000000000e+01
    1.800000000000e+05 4.000000000000e+00
13 21  2  9  3 59 44.0 9.512575343251e-05 4.320099833421e-12 0.000000000000e+00
    4.900000000000e+01 2.281250000000e+01 4.406969282245e-09-2.273051593631e+00
    1.225620508194e-06 4.920069128275e-03 8.009374141693e-06 5.153676244736e+03
    1.871840000000e+05 1.676380634308e-08 6.570470122568e-01-4.284083843231e-08
    9.681312811596e-01 2.297500000000e+02 1.030894423954e+00-7.785681447740e-09
    4.875203071777e-10 1.000000000000e+00 2.144000000000e+03 0.000000000000e+00
    2.400000000000e+00 0.000000000000e+00-1.117587089539e-08 4.900000000000e+01
    1.800000000000e+05 4.000000000000e+00
32 21  2  9  3 59 44.0 1.805881038308e-05 1.477928890381e-12 0.000000000000e+00
    4.300000000000e+01 1.062500000000e+01 4.716267880059e-09-8.794634813669e-01
    4.954636096954e-07 4.549742210656e-03 8.508563041687e-06 5.153628286362e+03
    1.871840000000e+05 1.490116119385e-07 5.196959949442e-01 1.061707735062e-07
    9.573697909803e-01 2.155312500000e+02-2.443037156315e+00-7.990332829435e-09
    4.507330605555e-10 1.000000000000e+00 2.144000000000e+03 0.000000000000e+00
    2.400000000000e+00 0.000000000000e+00 4.656612873077e-10 4.300000000000e+01
    1.800000000000e+05 4.000000000000e+00
17 21  2  9  3 59 44.0 3.909920342267e-04 6.480149750132e-12 0.000000000000e+00
    2.600000000000e+01 1.224687500000e+02 4.077312693582e-09-1.707477544139e+00
    6.711110472679e-06 1.352397899609e-02 4.535540938377e-06 5.153549577713e+03
    1.871840000000e+05 8.940696716309e-08-2.555396668631e+00 3.241002559662e-07
    9.829964598968e-01 3.042812500000e+02-1.578688932216e+00-7.898543291746e-09
    3.132273328900e-10 1.000000000000e+00 2.144000000000e+03 0.000000000000e+00
    2.400000000000e+00 0.000000000000e+00-1.117587089539e-08 2.600000000000e+01
    1.800000000000e+05 4.000000000000e+00
 2 21  2  9  4  0  0.0-5.749254487455e-04-3.979039320257e-12 0.000000000000e+00
    9.600000000000e+01-5.078125000000e+01 4.694124100539e-09 2.716958203346e+00
   -2.529472112656e-06 2.038875699509e-02 6.705522537231e-08 5.153615615845e+03
    1.872000000000e+05 3.091990947723e-07-1.640020279050e+00-2.142041921616e-07
    9.616698119220e-01 3.735937500000e+02-1.549105140116e+00-8.162125699583e-09
   -2.332240004300e-10 1.000000000000e+00 2.144000000000e+03 0.000000000000e+00
    2.400000000000e+00 0.000000000000e+00-1.769512891769e-08 9.600000000000e+01
    1.800000000000e+05 4.000000000000e+00
 1 21  2  9  4  0  0.0 7.648803293705e-04-7.503331289627e-12 0.000000000000e+00
    5.000000000000e+01-6.803125000000e+01 4.249819879199e-09 2.469584350341e+00
   -3.695487976074e-06 1.035692158621e-02 7.785856723785e-07 5.153691642761e+03
    1.872000000000e+05-5.587935447693e-08-1.558386835993e+00-1.266598701477e-07
    9.828845905513e-01 3.778125000000e+02 8.210828417618e-01-8.112123616796e-09
   -1.653640309328e-10 1.000000000000e+00 2.144000000000e+03 0.000000000000e+00
    2.400000000000e+00 0.000000000000e+00 4.656612873077e-09 5.000000000000e+01
    1.800000000000e+05 4.000000000000e+00
 5 21  2  9  4  0  0.0-3.319978713989e-05-1.023181539495e-12 0.000000000000e+00
    3.800000000000e+01-1.130937500000e+02 4.387682764599e-09-1.003340761307e+00
   -5.930662155151e-06 5.980933550745e-03 9.788200259209e-06 5.153820590973e+03
    1.872000000000e+05 8.940696716309e-08-5.549439571519e-01 1.229345798492e-07
    9.554516698486e-01 1.874062500000e+02 8.842968954066e-01-7.962831683902e-09
   -1.003613233091e-10 1.000000000000e+00 2.144000000000e+03 0.000000000000e+00
    2.400000000000e+00 0.000000000000e+00-1.117587089539e-08 3.800000000000e+01
    1.800000000000e+05 4.000000000000e+00
 3 21  2  9  4  0  0.0-7.811561226845e-05-1.011812855722e-11 0.000000000000e+00
    4.200000000000e+01-1.262187500000e+02 4.048382917113e-09 1.324735496894e+00
   -6.541609764099e-06 3.252862719819e-03 1.011416316032e-05 5.153666652679e+03
    1.872000000000e+05-6.519258022308e-08-5.195448345449e-01 6.891787052155e-08
    9.685347554287e-01 1.885000000000e+02 8.542386701952e-01-7.777109662120e-09
   -2.642967233051e-11 1.000000000000e+00 2.144000000000e+03 0.000000000000e+00
    2.400000000000e+00 0.000000000000e+00 1.862645149231e-09 4.200000000000e+01
    1.800000000000e+05 4.000000000000e+00
